CORIOLIS
1 27640U 03001A   18062.93619182 -.00000001 +00000-0 +20372-4 0  9999
2 27640 098.7409 074.5811 0013027 282.1582 136.1624 14.18971148784809